[{"OBJECT_NAME":"TIANMU-1 10","OBJECT_ID":"2023-101D","EPOCH":"2026-03-09T23:06:46.939392","MEAN_MOTION":15.2921896,"ECCENTRICITY":0.00069292,"INCLINATION":97.2749,"RA_OF_ASC_NODE":122.1027,"ARG_OF_PERICENTER":133.6162,"MEAN_ANOMALY":226.5654,"EPHEMERIS_TYPE":0,"CLASSIFICATION_TYPE":"U","NORAD_CAT_ID":57402,"ELEMENT_SET_NO":999,"REV_AT_EPOCH":14647,"BSTAR":0.00032238884,"MEAN_MOTION_DOT":9.075e-5,"MEAN_MOTION_DDOT":0},{"OBJECT_NAME":"STARLINK-36489","OBJECT_ID":"2026-002Z","EPOCH":"2026-03-09T09:46:51.624480","MEAN_MOTION":15.27574438,"ECCENTRICITY":3.691e-5,"INCLINATION":42.9947,"RA_OF_ASC_NODE":327.0375,"ARG_OF_PERICENTER":316.9238,"MEAN_ANOMALY":43.1584,"EPHEMERIS_TYPE":0,"CLASSIFICATION_TYPE":"U","NORAD_CAT_ID":67328,"ELEMENT_SET_NO":999,"REV_AT_EPOCH":1119,"BSTAR":0.00086386729,"MEAN_MOTION_DOT":0.00023582,"MEAN_MOTION_DDOT":0}]
